STARLINK-31781          
1 59632U 24082B   26068.50815961 -.00001092  00000+0 -30183-4 0  9990
2 59632  42.9992 126.7217 0000644 264.8592  95.2186 15.27570647104985
TRANSPORTER-12 OBJECT BA
1 62657U 25009BA  26068.70118713  .00011330  00000+0  42733-3 0  9991
2 62657  97.3985 151.1390 0000403 234.6623 125.4579 15.27214003 63739
